CCSDS_OMM_VERS = 2.0
CREATION_DATE  = 
ORIGINATOR     = 

OBJECT_NAME    = SL-16 R/B
OBJECT_ID      = 1994-074B
CENTER_NAME    = EARTH
REF_FRAME      = TEME
TIME_SYSTEM    = UTC
MEAN_ELEMENT_THEORY = SGP/SGP4

EPOCH          = 2026-02-16T01:57:09.086688
MEAN_MOTION    = 14.79381780
ECCENTRICITY   = .000524
INCLINATION    = 97.7138
RA_OF_ASC_NODE = 78.7712
ARG_OF_PERICENTER = 298.0492
MEAN_ANOMALY   = 119.3302

EPHEMERIS_TYPE = 0
CLASSIFICATION_TYPE = U
NORAD_CAT_ID   = 23343
ELEMENT_SET_NO = 999
REV_AT_EPOCH   = 68405
BSTAR          = .78756E-4
MEAN_MOTION_DOT = .538E-5
MEAN_MOTION_DDOT = 0

CCSDS_OMM_VERS = 2.0
CREATION_DATE  = 
ORIGINATOR     = 

OBJECT_NAME    = SL-16 R/B
OBJECT_ID      = 1994-077B
CENTER_NAME    = EARTH
REF_FRAME      = TEME
TIME_SYSTEM    = UTC
MEAN_ELEMENT_THEORY = SGP/SGP4

EPOCH          = 2026-02-16T03:27:13.201920
MEAN_MOTION    = 14.15561784
ECCENTRICITY   = .000398
INCLINATION    = 70.9828
RA_OF_ASC_NODE = 37.8157
ARG_OF_PERICENTER = 231.4070
MEAN_ANOMALY   = 128.6697

EPHEMERIS_TYPE = 0
CLASSIFICATION_TYPE = U
NORAD_CAT_ID   = 23405
ELEMENT_SET_NO = 999
REV_AT_EPOCH   = 61318
BSTAR          = .17525E-3
MEAN_MOTION_DOT = .295E-5
MEAN_MOTION_DDOT = 0

CCSDS_OMM_VERS = 2.0
CREATION_DATE  = 
ORIGINATOR     = 

OBJECT_NAME    = ARIANE 40+ R/B
OBJECT_ID      = 1995-021B
CENTER_NAME    = EARTH
REF_FRAME      = TEME
TIME_SYSTEM    = UTC
MEAN_ELEMENT_THEORY = SGP/SGP4

EPOCH          = 2026-02-16T04:40:06.413952
MEAN_MOTION    = 14.39756347
ECCENTRICITY   = .0006527
INCLINATION    = 98.4544
RA_OF_ASC_NODE = 118.9636
ARG_OF_PERICENTER = 196.5570
MEAN_ANOMALY   = 177.7710

EPHEMERIS_TYPE = 0
CLASSIFICATION_TYPE = U
NORAD_CAT_ID   = 23561
ELEMENT_SET_NO = 999
REV_AT_EPOCH   = 61615
BSTAR          = .11775E-3
MEAN_MOTION_DOT = .325E-5
MEAN_MOTION_DDOT = 0

CCSDS_OMM_VERS = 2.0
CREATION_DATE  = 
ORIGINATOR     = 

OBJECT_NAME    = SL-16 R/B
OBJECT_ID      = 1995-058B
CENTER_NAME    = EARTH
REF_FRAME      = TEME
TIME_SYSTEM    = UTC
MEAN_ELEMENT_THEORY = SGP/SGP4

EPOCH          = 2026-02-15T22:30:27.157248
MEAN_MOTION    = 14.15495880
ECCENTRICITY   = .0011719
INCLINATION    = 71.0196
RA_OF_ASC_NODE = 225.9210
ARG_OF_PERICENTER = 163.0286
MEAN_ANOMALY   = 197.1231

EPHEMERIS_TYPE = 0
CLASSIFICATION_TYPE = U
NORAD_CAT_ID   = 23705
ELEMENT_SET_NO = 999
REV_AT_EPOCH   = 56477
BSTAR          = .31633E-4
MEAN_MOTION_DOT = .14E-6
MEAN_MOTION_DDOT = 0

CCSDS_OMM_VERS = 2.0
CREATION_DATE  = 
ORIGINATOR     = 

OBJECT_NAME    = SL-16 R/B
OBJECT_ID      = 1996-051B
CENTER_NAME    = EARTH
REF_FRAME      = TEME
TIME_SYSTEM    = UTC
MEAN_ELEMENT_THEORY = SGP/SGP4

EPOCH          = 2026-02-15T22:16:26.414400
MEAN_MOTION    = 14.12409561
ECCENTRICITY   = .001698
INCLINATION    = 70.7569
RA_OF_ASC_NODE = 221.2989
ARG_OF_PERICENTER = 178.9391
MEAN_ANOMALY   = 181.1767

EPHEMERIS_TYPE = 0
CLASSIFICATION_TYPE = U
NORAD_CAT_ID   = 24298
ELEMENT_SET_NO = 999
REV_AT_EPOCH   = 51857
BSTAR          = .86294E-4
MEAN_MOTION_DOT = .11E-5
MEAN_MOTION_DDOT = 0

CCSDS_OMM_VERS = 2.0
CREATION_DATE  = 
ORIGINATOR     = 

OBJECT_NAME    = ORBVIEW 2 (SEASTAR)
OBJECT_ID      = 1997-037A
CENTER_NAME    = EARTH
REF_FRAME      = TEME
TIME_SYSTEM    = UTC
MEAN_ELEMENT_THEORY = SGP/SGP4

EPOCH          = 2026-02-16T00:27:40.594176
MEAN_MOTION    = 14.35478049
ECCENTRICITY   = .0003168
INCLINATION    = 98.8528
RA_OF_ASC_NODE = 210.7615
ARG_OF_PERICENTER = 115.8100
MEAN_ANOMALY   = 244.3412

EPHEMERIS_TYPE = 0
CLASSIFICATION_TYPE = U
NORAD_CAT_ID   = 24883
ELEMENT_SET_NO = 999
REV_AT_EPOCH   = 50536
BSTAR          = .13643E-3
MEAN_MOTION_DOT = .346E-5
MEAN_MOTION_DDOT = 0

CCSDS_OMM_VERS = 2.0
CREATION_DATE  = 
ORIGINATOR     = 

OBJECT_NAME    = SL-16 R/B
OBJECT_ID      = 1998-043G
CENTER_NAME    = EARTH
REF_FRAME      = TEME
TIME_SYSTEM    = UTC
MEAN_ELEMENT_THEORY = SGP/SGP4

EPOCH          = 2026-02-15T20:10:26.960448
MEAN_MOTION    = 14.26044501
ECCENTRICITY   = .0010961
INCLINATION    = 98.8217
RA_OF_ASC_NODE = 0.0542
ARG_OF_PERICENTER = 78.8254
MEAN_ANOMALY   = 281.4157

EPHEMERIS_TYPE = 0
CLASSIFICATION_TYPE = U
NORAD_CAT_ID   = 25400
ELEMENT_SET_NO = 999
REV_AT_EPOCH   = 43587
BSTAR          = .46957E-4
MEAN_MOTION_DOT = .67E-6
MEAN_MOTION_DDOT = 0

CCSDS_OMM_VERS = 2.0
CREATION_DATE  = 
ORIGINATOR     = 

OBJECT_NAME    = SL-16 R/B
OBJECT_ID      = 1998-045B
CENTER_NAME    = EARTH
REF_FRAME      = TEME
TIME_SYSTEM    = UTC
MEAN_ELEMENT_THEORY = SGP/SGP4

EPOCH          = 2026-02-15T23:01:37.172928
MEAN_MOTION    = 14.16188552
ECCENTRICITY   = .0005689
INCLINATION    = 71.0088
RA_OF_ASC_NODE = 227.2707
ARG_OF_PERICENTER = 47.5138
MEAN_ANOMALY   = 312.6465

EPHEMERIS_TYPE = 0
CLASSIFICATION_TYPE = U
NORAD_CAT_ID   = 25407
ELEMENT_SET_NO = 999
REV_AT_EPOCH   = 42402
BSTAR          = .18317E-3
MEAN_MOTION_DOT = .315E-5
MEAN_MOTION_DDOT = 0

CCSDS_OMM_VERS = 2.0
CREATION_DATE  = 
ORIGINATOR     = 

OBJECT_NAME    = ISS (ZARYA)
OBJECT_ID      = 1998-067A
CENTER_NAME    = EARTH
REF_FRAME      = TEME
TIME_SYSTEM    = UTC
MEAN_ELEMENT_THEORY = SGP/SGP4

EPOCH          = 2026-02-15T19:51:56.196864
MEAN_MOTION    = 15.48632468
ECCENTRICITY   = .0010986
INCLINATION    = 51.6318
RA_OF_ASC_NODE = 180.4216
ARG_OF_PERICENTER = 102.2508
MEAN_ANOMALY   = 257.9711

EPHEMERIS_TYPE = 0
CLASSIFICATION_TYPE = U
NORAD_CAT_ID   = 25544
ELEMENT_SET_NO = 999
REV_AT_EPOCH   = 55294
BSTAR          = .23475E-3
MEAN_MOTION_DOT = .1236E-3
MEAN_MOTION_DDOT = 0

CCSDS_OMM_VERS = 2.0
CREATION_DATE  = 
ORIGINATOR     = 

OBJECT_NAME    = CZ-4B R/B
OBJECT_ID      = 1999-025C
CENTER_NAME    = EARTH
REF_FRAME      = TEME
TIME_SYSTEM    = UTC
MEAN_ELEMENT_THEORY = SGP/SGP4

EPOCH          = 2026-02-16T03:35:13.130592
MEAN_MOTION    = 14.18260921
ECCENTRICITY   = .0037875
INCLINATION    = 98.6670
RA_OF_ASC_NODE = 91.9365
ARG_OF_PERICENTER = 48.1954
MEAN_ANOMALY   = 19.6314

EPHEMERIS_TYPE = 0
CLASSIFICATION_TYPE = U
NORAD_CAT_ID   = 25732
ELEMENT_SET_NO = 999
REV_AT_EPOCH   = 38511
BSTAR          = .49137E-4
MEAN_MOTION_DOT = .59E-6
MEAN_MOTION_DDOT = 0

CCSDS_OMM_VERS = 2.0
CREATION_DATE  = 
ORIGINATOR     = 

OBJECT_NAME    = OKEAN-O
OBJECT_ID      = 1999-039A
CENTER_NAME    = EARTH
REF_FRAME      = TEME
TIME_SYSTEM    = UTC
MEAN_ELEMENT_THEORY = SGP/SGP4

EPOCH          = 2026-02-16T03:46:05.184480
MEAN_MOTION    = 14.80299640
ECCENTRICITY   = .0001811
INCLINATION    = 97.9491
RA_OF_ASC_NODE = 107.2623
ARG_OF_PERICENTER = 81.6639
MEAN_ANOMALY   = 278.4778

EPHEMERIS_TYPE = 0
CLASSIFICATION_TYPE = U
NORAD_CAT_ID   = 25860
ELEMENT_SET_NO = 999
REV_AT_EPOCH   = 43120
BSTAR          = .10752E-3
MEAN_MOTION_DOT = .767E-5
MEAN_MOTION_DDOT = 0

CCSDS_OMM_VERS = 2.0
CREATION_DATE  = 
ORIGINATOR     = 

OBJECT_NAME    = SL-16 R/B
OBJECT_ID      = 1999-039B
CENTER_NAME    = EARTH
REF_FRAME      = TEME
TIME_SYSTEM    = UTC
MEAN_ELEMENT_THEORY = SGP/SGP4

EPOCH          = 2026-02-16T03:46:22.623456
MEAN_MOTION    = 14.81700648
ECCENTRICITY   = .0014068
INCLINATION    = 98.0013
RA_OF_ASC_NODE = 106.2806
ARG_OF_PERICENTER = 332.1827
MEAN_ANOMALY   = 27.8631

EPHEMERIS_TYPE = 0
CLASSIFICATION_TYPE = U
NORAD_CAT_ID   = 25861
ELEMENT_SET_NO = 999
REV_AT_EPOCH   = 43367
BSTAR          = .88903E-4
MEAN_MOTION_DOT = .647E-5
MEAN_MOTION_DDOT = 0

CCSDS_OMM_VERS = 2.0
CREATION_DATE  = 
ORIGINATOR     = 

OBJECT_NAME    = DELTA 2 R/B
OBJECT_ID      = 1999-041E
CENTER_NAME    = EARTH
REF_FRAME      = TEME
TIME_SYSTEM    = UTC
MEAN_ELEMENT_THEORY = SGP/SGP4

EPOCH          = 2026-02-16T03:11:24.356256
MEAN_MOTION    = 14.11755704
ECCENTRICITY   = .0502244
INCLINATION    = 51.7656
RA_OF_ASC_NODE = 27.3667
ARG_OF_PERICENTER = 284.7589
MEAN_ANOMALY   = 69.8220

EPHEMERIS_TYPE = 0
CLASSIFICATION_TYPE = U
NORAD_CAT_ID   = 25876
ELEMENT_SET_NO = 999
REV_AT_EPOCH   = 35998
BSTAR          = .37485E-3
MEAN_MOTION_DOT = .2098E-4
MEAN_MOTION_DDOT = 0

CCSDS_OMM_VERS = 2.0
CREATION_DATE  = 
ORIGINATOR     = 

OBJECT_NAME    = HELIOS 1B
OBJECT_ID      = 1999-064A
CENTER_NAME    = EARTH
REF_FRAME      = TEME
TIME_SYSTEM    = UTC
MEAN_ELEMENT_THEORY = SGP/SGP4

EPOCH          = 2026-02-16T02:57:10.744128
MEAN_MOTION    = 14.87606582
ECCENTRICITY   = .0002304
INCLINATION    = 98.1722
RA_OF_ASC_NODE = 308.7303
ARG_OF_PERICENTER = 103.4359
MEAN_ANOMALY   = 256.7114

EPHEMERIS_TYPE = 0
CLASSIFICATION_TYPE = U
NORAD_CAT_ID   = 25977
ELEMENT_SET_NO = 999
REV_AT_EPOCH   = 68205
BSTAR          = .2174E-3
MEAN_MOTION_DOT = .1918E-4
MEAN_MOTION_DDOT = 0

CCSDS_OMM_VERS = 2.0
CREATION_DATE  = 
ORIGINATOR     = 

OBJECT_NAME    = TERRA
OBJECT_ID      = 1999-068A
CENTER_NAME    = EARTH
REF_FRAME      = TEME
TIME_SYSTEM    = UTC
MEAN_ELEMENT_THEORY = SGP/SGP4

EPOCH          = 2026-02-16T03:14:20.069664
MEAN_MOTION    = 14.60990916
ECCENTRICITY   = .0001177
INCLINATION    = 97.9640
RA_OF_ASC_NODE = 101.3880
ARG_OF_PERICENTER = 221.5251
MEAN_ANOMALY   = 163.5994

EPHEMERIS_TYPE = 0
CLASSIFICATION_TYPE = U
NORAD_CAT_ID   = 25994
ELEMENT_SET_NO = 999
REV_AT_EPOCH   = 39193
BSTAR          = .10954E-3
MEAN_MOTION_DOT = .493E-5
MEAN_MOTION_DDOT = 0

